[{"OBJECT_NAME":"STARLINK-30239","OBJECT_ID":"2023-096B","EPOCH":"2026-03-09T22:00:01.999584","MEAN_MOTION":15.17291033,"ECCENTRICITY":0.00011539,"INCLINATION":42.9992,"RA_OF_ASC_NODE":221.2546,"ARG_OF_PERICENTER":297.0499,"MEAN_ANOMALY":275.4383,"EPHEMERIS_TYPE":0,"CLASSIFICATION_TYPE":"U","NORAD_CAT_ID":57291,"ELEMENT_SET_NO":999,"REV_AT_EPOCH":578,"BSTAR":0.0046931464,"MEAN_MOTION_DOT":0.00096291,"MEAN_MOTION_DDOT":0},{"OBJECT_NAME":"DELTA 1 DEB","OBJECT_ID":"1977-065AM","EPOCH":"2026-03-09T22:03:01.031616","MEAN_MOTION":14.51643532,"ECCENTRICITY":0.03229519,"INCLINATION":28.9328,"RA_OF_ASC_NODE":276.015,"ARG_OF_PERICENTER":66.8309,"MEAN_ANOMALY":296.5959,"EPHEMERIS_TYPE":0,"CLASSIFICATION_TYPE":"U","NORAD_CAT_ID":10208,"ELEMENT_SET_NO":999,"REV_AT_EPOCH":43123,"BSTAR":0.0021583786,"MEAN_MOTION_DOT":0.00017761,"MEAN_MOTION_DDOT":0}]
